ASTRA 1F                
1 23842U 96021A   17345.87615650  .00000133  00000-0  00000-0 0  9992
2 23842   0.0368 338.5241 0003885 285.9909 175.9755  1.00273709 21179
